{
  "links" : {
    "next" : "https://api.nasa.gov/neo/rest/v1/feed?start_date=2016-07-16&end_date=2016-07-16&detailed=true&api_key=t0TVs3DtDT2H8Oy2Zy8m2eVrNsAVKAexjcZXUckd",
    "prev" : "https://api.nasa.gov/neo/rest/v1/feed?start_date=2016-07-14&end_date=2016-07-14&detailed=true&api_key=t0TVs3DtDT2H8Oy2Zy8m2eVrNsAVKAexjcZXUckd",
    "self" : "https://api.nasa.gov/neo/rest/v1/feed?start_date=2016-07-15&end_date=2016-07-15&detailed=true&api_key=t0TVs3DtDT2H8Oy2Zy8m2eVrNsAVKAexjcZXUckd"
  },
  "element_count" : 10,
  "near_earth_objects" : {
    "2016-07-15" : [ {
      "links" : {
        "self" : "https://api.nasa.gov/neo/rest/v1/neo/3607480?api_key=t0TVs3DtDT2H8Oy2Zy8m2eVrNsAVKAexjcZXUckd"
      },
      "neo_reference_id" : "3607480",
      "name" : "(2012 PP17)",
      "nasa_jpl_url" : "http://ssd.jpl.nasa.gov/sbdb.cgi?sstr=3607480",
      "absolute_magnitude_h" : 21.6,
      "estimated_diameter" : {
        "kilometers" : {
          "estimated_diameter_min" : 0.1272198785,
          "estimated_diameter_max" : 0.2844722965
        },
        "meters" : {
          "estimated_diameter_min" : 127.2198785394,
          "estimated_diameter_max" : 284.4722965033
        },
        "miles" : {
          "estimated_diameter_min" : 0.0790507431,
          "estimated_diameter_max" : 0.1767628354
        },
        "feet" : {
          "estimated_diameter_min" : 417.3880663071,
          "estimated_diameter_max" : 933.3080892598
        }
      },
      "is_potentially_hazardous_asteroid" : false,
      "close_approach_data" : [ {
        "close_approach_date" : "2016-07-15",
        "epoch_date_close_approach" : 1468566000000,
        "relative_velocity" : {
          "kilometers_per_second" : "8.4466295754",
          "kilometers_per_hour" : "30407.8664712867",
          "miles_per_hour" : "18894.265697117"
        },
        "miss_distance" : {
          "astronomical" : "0.2535118212",
          "lunar" : "98.6160964966",
          "kilometers" : "37924828",
          "miles" : "23565396"
        },
        "orbiting_body" : "Earth"
      } ],
      "orbital_data" : {
        "orbit_id" : "25",
        "orbit_determination_date" : "2017-04-06 08:49:20",
        "orbit_uncertainty" : "0",
        "minimum_orbit_intersection" : ".177335",
        "jupiter_tisserand_invariant" : "3.247",
        "epoch_osculation" : "2458000.5",
        "eccentricity" : ".5349720489630654",
        "semi_major_axis" : "2.499197241708532",
        "inclination" : "5.762600006082432",
        "ascending_node_longitude" : "242.5553598131882",
        "orbital_period" : "1443.109302379406",
        "perihelion_distance" : "1.162196572548877",
        "perihelion_argument" : "67.71141187653168",
        "aphelion_distance" : "3.836197910868186",
        "perihelion_time" : "2457592.614824715457",
        "mean_anomaly" : "101.7515879499407",
        "mean_motion" : ".2494613536247255",
        "equinox" : "J2000"
      }
    }, {
      "links" : {
        "self" : "https://api.nasa.gov/neo/rest/v1/neo/3753446?api_key=t0TVs3DtDT2H8Oy2Zy8m2eVrNsAVKAexjcZXUckd"
      },
      "neo_reference_id" : "3753446",
      "name" : "(2016 JD34)",
      "nasa_jpl_url" : "http://ssd.jpl.nasa.gov/sbdb.cgi?sstr=3753446",
      "absolute_magnitude_h" : 21.6,
      "estimated_diameter" : {
        "kilometers" : {
          "estimated_diameter_min" : 0.1272198785,
          "estimated_diameter_max" : 0.2844722965
        },
        "meters" : {
          "estimated_diameter_min" : 127.2198785394,
          "estimated_diameter_max" : 284.4722965033
        },
        "miles" : {
          "estimated_diameter_min" : 0.0790507431,
          "estimated_diameter_max" : 0.1767628354
        },
        "feet" : {
          "estimated_diameter_min" : 417.3880663071,
          "estimated_diameter_max" : 933.3080892598
        }
      },
      "is_potentially_hazardous_asteroid" : false,
      "close_approach_data" : [ {
        "close_approach_date" : "2016-07-15",
        "epoch_date_close_approach" : 1468566000000,
        "relative_velocity" : {
          "kilometers_per_second" : "9.9542664727",
          "kilometers_per_hour" : "35835.3593017935",
          "miles_per_hour" : "22266.6986728283"
        },
        "miss_distance" : {
          "astronomical" : "0.2437043613",
          "lunar" : "94.800994873",
          "kilometers" : "36457656",
          "miles" : "22653736"
        },
        "orbiting_body" : "Earth"
      } ],
      "orbital_data" : {
        "orbit_id" : "20",
        "orbit_determination_date" : "2017-04-06 08:25:52",
        "orbit_uncertainty" : "5",
        "minimum_orbit_intersection" : ".118478",
        "jupiter_tisserand_invariant" : "3.551",
        "epoch_osculation" : "2458000.5",
        "eccentricity" : ".4678975692807991",
        "semi_major_axis" : "2.132776673828935",
        "inclination" : "10.78418277517675",
        "ascending_node_longitude" : "99.91495733988673",
        "orbital_period" : "1137.670508642224",
        "perihelion_distance" : "1.134855652325589",
        "perihelion_argument" : "180.5015293196442",
        "aphelion_distance" : "3.130697695332281",
        "perihelion_time" : "2457583.573100111520",
        "mean_anomaly" : "131.9307152815142",
        "mean_motion" : ".3164360834400545",
        "equinox" : "J2000"
      }
    }, {
      "links" : {
        "self" : "https://api.nasa.gov/neo/rest/v1/neo/3740663?api_key=t0TVs3DtDT2H8Oy2Zy8m2eVrNsAVKAexjcZXUckd"
      },
      "neo_reference_id" : "3740663",
      "name" : "(2016 AO193)",
      "nasa_jpl_url" : "http://ssd.jpl.nasa.gov/sbdb.cgi?sstr=3740663",
      "absolute_magnitude_h" : 20.7,
      "estimated_diameter" : {
        "kilometers" : {
          "estimated_diameter_min" : 0.1925550782,
          "estimated_diameter_max" : 0.4305662442
        },
        "meters" : {
          "estimated_diameter_min" : 192.5550781879,
          "estimated_diameter_max" : 430.566244241
        },
        "miles" : {
          "estimated_diameter_min" : 0.1196481415,
          "estimated_diameter_max" : 0.2675413778
        },
        "feet" : {
          "estimated_diameter_min" : 631.7424027221,
          "estimated_diameter_max" : 1412.6189567557
        }
      },
      "is_potentially_hazardous_asteroid" : false,
      "close_approach_data" : [ {
        "close_approach_date" : "2016-07-15",
        "epoch_date_close_approach" : 1468566000000,
        "relative_velocity" : {
          "kilometers_per_second" : "19.0029061404",
          "kilometers_per_hour" : "68410.462105499",
          "miles_per_hour" : "42507.6007454974"
        },
        "miss_distance" : {
          "astronomical" : "0.2434575101",
          "lunar" : "94.7049713135",
          "kilometers" : "36420724",
          "miles" : "22630790"
        },
        "orbiting_body" : "Earth"
      } ],
      "orbital_data" : {
        "orbit_id" : "14",
        "orbit_determination_date" : "2017-04-06 08:29:03",
        "orbit_uncertainty" : "4",
        "minimum_orbit_intersection" : ".170887",
        "jupiter_tisserand_invariant" : "3.930",
        "epoch_osculation" : "2458000.5",
        "eccentricity" : ".4455039673834926",
        "semi_major_axis" : "1.744367637657158",
        "inclination" : "24.06566747974294",
        "ascending_node_longitude" : "301.9237514011382",
        "orbital_period" : "841.5025921859109",
        "perihelion_distance" : ".9672449345055236",
        "perihelion_argument" : "284.9525132538295",
        "aphelion_distance" : "2.521490340808793",
        "perihelion_time" : "2458377.120693727212",
        "mean_anomaly" : "198.8793439250126",
        "mean_motion" : ".4278061688019925",
        "equinox" : "J2000"
      }
    } ]
  }
}